[{"CCSDS_OMM_VERS":"2.0","COMMENT":"GENERATED VIA SPACE-TRACK.ORG API","CREATION_DATE":"2022-07-19T15:26:12","ORIGINATOR":"18 SPCS","OBJECT_NAME":"STARLINK-1098","OBJECT_ID":"2020-001D","CENTER_NAME":"EARTH","REF_FRAME":"TEME","TIME_SYSTEM":"UTC","MEAN_ELEMENT_THEORY":"SGP4","EPOCH":"2022-07-19T09:26:00.085920","MEAN_MOTION":"15.06402684","ECCENTRICITY":"0.00016090","INCLINATION":"53.0535","RA_OF_ASC_NODE":"194.0589","ARG_OF_PERICENTER":"63.1157","MEAN_ANOMALY":"296.9997","EPHEMERIS_TYPE":"0","CLASSIFICATION_TYPE":"U","NORAD_CAT_ID":"44917","ELEMENT_SET_NO":"999","REV_AT_EPOCH":"13949","BSTAR":"0.00005211300000","MEAN_MOTION_DOT":"0.00000495","MEAN_MOTION_DDOT":"0.0000000000000","SEMIMAJOR_AXIS":"6925.340","PERIOD":"95.592","APOAPSIS":"548.320","PERIAPSIS":"546.091","OBJECT_TYPE":"PAYLOAD","RCS_SIZE":"LARGE","COUNTRY_CODE":"US","LAUNCH_DATE":"2020-01-07","SITE":"AFETR","DECAY_DATE":null,"FILE":"3517649","GP_ID":"208420873","TLE_LINE0":"0 STARLINK-1098","TLE_LINE1":"1 44917U 20001D   22200.39305655  .00000495  00000-0  52113-4 0  9994","TLE_LINE2":"2 44917  53.0535 194.0589 0001609  63.1157 296.9997 15.06402684139496"},{"CCSDS_OMM_VERS":"2.0","COMMENT":"GENERATED VIA SPACE-TRACK.ORG API","CREATION_DATE":"2022-07-20T06:56:12","ORIGINATOR":"18 SPCS","OBJECT_NAME":"STARLINK-1098","OBJECT_ID":"2020-001D","CENTER_NAME":"EARTH","REF_FRAME":"TEME","TIME_SYSTEM":"UTC","MEAN_ELEMENT_THEORY":"SGP4","EPOCH":"2022-07-20T04:32:29.905728","MEAN_MOTION":"15.06357020","ECCENTRICITY":"0.00013760","INCLINATION":"53.0536","RA_OF_ASC_NODE":"190.4849","ARG_OF_PERICENTER":"75.7418","MEAN_ANOMALY":"284.3723","EPHEMERIS_TYPE":"0","CLASSIFICATION_TYPE":"U","NORAD_CAT_ID":"44917","ELEMENT_SET_NO":"999","REV_AT_EPOCH":"13961","BSTAR":"0.00100980000000","MEAN_MOTION_DOT":"0.00014774","MEAN_MOTION_DDOT":"0.0000000000000","SEMIMAJOR_AXIS":"6925.480","PERIOD":"95.595","APOAPSIS":"548.298","PERIAPSIS":"546.392","OBJECT_TYPE":"PAYLOAD","RCS_SIZE":"LARGE","COUNTRY_CODE":"US","LAUNCH_DATE":"2020-01-07","SITE":"AFETR","DECAY_DATE":null,"FILE":"3517905","GP_ID":"208476797","TLE_LINE0":"0 STARLINK-1098","TLE_LINE1":"1 44917U 20001D   22201.18923502  .00014774  00000-0  10098-2 0  9998","TLE_LINE2":"2 44917  53.0536 190.4849 0001376  75.7418 284.3723 15.06357020139611"},{"CCSDS_OMM_VERS":"2.0","COMMENT":"GENERATED VIA SPACE-TRACK.ORG API","CREATION_DATE":"2022-07-20T14:56:12","ORIGINATOR":"18 SPCS","OBJECT_NAME":"STARLINK-1098","OBJECT_ID":"2020-001D","CENTER_NAME":"EARTH","REF_FRAME":"TEME","TIME_SYSTEM":"UTC","MEAN_ELEMENT_THEORY":"SGP4","EPOCH":"2022-07-20T10:54:37.655136","MEAN_MOTION":"15.06408775","ECCENTRICITY":"0.00017230","INCLINATION":"53.0527","RA_OF_ASC_NODE":"189.2934","ARG_OF_PERICENTER":"65.7752","MEAN_ANOMALY":"294.3417","EPHEMERIS_TYPE":"0","CLASSIFICATION_TYPE":"U","NORAD_CAT_ID":"44917","ELEMENT_SET_NO":"999","REV_AT_EPOCH":"13965","BSTAR":"0.00031568000000","MEAN_MOTION_DOT":"0.00004425","MEAN_MOTION_DDOT":"0.0000000000000","SEMIMAJOR_AXIS":"6925.322","PERIOD":"95.592","APOAPSIS":"548.380","PERIAPSIS":"545.993","OBJECT_TYPE":"PAYLOAD","RCS_SIZE":"LARGE","COUNTRY_CODE":"US","LAUNCH_DATE":"2020-01-07","SITE":"AFETR","DECAY_DATE":null,"FILE":"3518070","GP_ID":"208480524","TLE_LINE0":"0 STARLINK-1098","TLE_LINE1":"1 44917U 20001D   22201.45460249  .00004425  00000-0  31568-3 0  9990","TLE_LINE2":"2 44917  53.0527 189.2934 0001723  65.7752 294.3417 15.06408775139657"},{"CCSDS_OMM_VERS":"2.0","COMMENT":"GENERATED VIA SPACE-TRACK.ORG API","CREATION_DATE":"2022-07-21T02:44:17","ORIGINATOR":"18 SPCS","OBJECT_NAME":"STARLINK-1098","OBJECT_ID":"2020-001D","CENTER_NAME":"EARTH","REF_FRAME":"TEME","TIME_SYSTEM":"UTC","MEAN_ELEMENT_THEORY":"SGP4","EPOCH":"2022-07-20T20:27:51.964128","MEAN_MOTION":"15.06402440","ECCENTRICITY":"0.00017430","INCLINATION":"53.0527","RA_OF_ASC_NODE":"187.5063","ARG_OF_PERICENTER":"65.6467","MEAN_ANOMALY":"294.4704","EPHEMERIS_TYPE":"0","CLASSIFICATION_TYPE":"U","NORAD_CAT_ID":"44917","ELEMENT_SET_NO":"999","REV_AT_EPOCH":"13971","BSTAR":"0.00009634700000","MEAN_MOTION_DOT":"0.00001154","MEAN_MOTION_DDOT":"0.0000000000000","SEMIMAJOR_AXIS":"6925.341","PERIOD":"95.592","APOAPSIS":"548.413","PERIAPSIS":"545.999","OBJECT_TYPE":"PAYLOAD","RCS_SIZE":"LARGE","COUNTRY_CODE":"US","LAUNCH_DATE":"2020-01-07","SITE":"AFETR","DECAY_DATE":null,"FILE":"3518363","GP_ID":"208531598","TLE_LINE0":"0 STARLINK-1098","TLE_LINE1":"1 44917U 20001D   22201.85268477  .00001154  00000-0  96347-4 0  9996","TLE_LINE2":"2 44917  53.0527 187.5063 0001743  65.6467 294.4704 15.06402440139715"},{"CCSDS_OMM_VERS":"2.0","COMMENT":"GENERATED VIA SPACE-TRACK.ORG API","CREATION_DATE":"2022-07-21T07:16:12","ORIGINATOR":"18 SPCS","OBJECT_NAME":"STARLINK-1098","OBJECT_ID":"2020-001D","CENTER_NAME":"EARTH","REF_FRAME":"TEME","TIME_SYSTEM":"UTC","MEAN_ELEMENT_THEORY":"SGP4","EPOCH":"2022-07-21T04:25:33.842208","MEAN_MOTION":"15.06399579","ECCENTRICITY":"0.00017140","INCLINATION":"53.0527","RA_OF_ASC_NODE":"186.0170","ARG_OF_PERICENTER":"65.3415","MEAN_ANOMALY":"294.7752","EPHEMERIS_TYPE":"0","CLASSIFICATION_TYPE":"U","NORAD_CAT_ID":"44917","ELEMENT_SET_NO":"999","REV_AT_EPOCH":"13976","BSTAR":"0.00004544000000","MEAN_MOTION_DOT":"0.00000395","MEAN_MOTION_DDOT":"0.0000000000000","SEMIMAJOR_AXIS":"6925.350","PERIOD":"95.592","APOAPSIS":"548.402","PERIAPSIS":"546.028","OBJECT_TYPE":"PAYLOAD","RCS_SIZE":"LARGE","COUNTRY_CODE":"US","LAUNCH_DATE":"2020-01-07","SITE":"AFETR","DECAY_DATE":null,"FILE":"3518578","GP_ID":"208542843","TLE_LINE0":"0 STARLINK-1098","TLE_LINE1":"1 44917U 20001D   22202.18441947  .00000395  00000-0  45440-4 0  9992","TLE_LINE2":"2 44917  53.0527 186.0170 0001714  65.3415 294.7752 15.06399579139765"},{"CCSDS_OMM_VERS":"2.0","COMMENT":"GENERATED VIA SPACE-TRACK.ORG API","CREATION_DATE":"2022-07-21T19:06:56","ORIGINATOR":"18 SPCS","OBJECT_NAME":"STARLINK-1098","OBJECT_ID":"2020-001D","CENTER_NAME":"EARTH","REF_FRAME":"TEME","TIME_SYSTEM":"UTC","MEAN_ELEMENT_THEORY":"SGP4","EPOCH":"2022-07-21T10:47:44.025504","MEAN_MOTION":"15.06391105","ECCENTRICITY":"0.00016950","INCLINATION":"53.0535","RA_OF_ASC_NODE":"184.8260","ARG_OF_PERICENTER":"65.0894","MEAN_ANOMALY":"295.0271","EPHEMERIS_TYPE":"0","CLASSIFICATION_TYPE":"U","NORAD_CAT_ID":"44917","ELEMENT_SET_NO":"999","REV_AT_EPOCH":"13980","BSTAR":"-0.00000204960000","MEAN_MOTION_DOT":"-0.00000312","MEAN_MOTION_DDOT":"0.0000000000000","SEMIMAJOR_AXIS":"6925.376","PERIOD":"95.593","APOAPSIS":"548.415","PERIAPSIS":"546.067","OBJECT_TYPE":"PAYLOAD","RCS_SIZE":"LARGE","COUNTRY_CODE":"US","LAUNCH_DATE":"2020-01-07","SITE":"AFETR","DECAY_DATE":null,"FILE":"3518988","GP_ID":"208572720","TLE_LINE0":"0 STARLINK-1098","TLE_LINE1":"1 44917U 20001D   22202.44981511 -.00000312  00000-0 -20496-5 0  9993","TLE_LINE2":"2 44917  53.0535 184.8260 0001695  65.0894 295.0271 15.06391105139808"},{"CCSDS_OMM_VERS":"2.0","COMMENT":"GENERATED VIA SPACE-TRACK.ORG API","CREATION_DATE":"2022-07-21T15:06:12","ORIGINATOR":"18 SPCS","OBJECT_NAME":"STARLINK-1098","OBJECT_ID":"2020-001D","CENTER_NAME":"EARTH","REF_FRAME":"TEME","TIME_SYSTEM":"UTC","MEAN_ELEMENT_THEORY":"SGP4","EPOCH":"2022-07-21T10:47:44.025504","MEAN_MOTION":"15.06391105","ECCENTRICITY":"0.00016950","INCLINATION":"53.0535","RA_OF_ASC_NODE":"184.8260","ARG_OF_PERICENTER":"65.0894","MEAN_ANOMALY":"295.0271","EPHEMERIS_TYPE":"0","CLASSIFICATION_TYPE":"U","NORAD_CAT_ID":"44917","ELEMENT_SET_NO":"999","REV_AT_EPOCH":"13980","BSTAR":"-0.00000204960000","MEAN_MOTION_DOT":"-0.00000312","MEAN_MOTION_DDOT":"0.0000000000000","SEMIMAJOR_AXIS":"6925.376","PERIOD":"95.593","APOAPSIS":"548.415","PERIAPSIS":"546.067","OBJECT_TYPE":"PAYLOAD","RCS_SIZE":"LARGE","COUNTRY_CODE":"US","LAUNCH_DATE":"2020-01-07","SITE":"AFETR","DECAY_DATE":null,"FILE":"3518960","GP_ID":"208550291","TLE_LINE0":"0 STARLINK-1098","TLE_LINE1":"1 44917U 20001D   22202.44981511 -.00000312  00000-0 -20496-5 0  9993","TLE_LINE2":"2 44917  53.0535 184.8260 0001695  65.0894 295.0271 15.06391105139808"},{"CCSDS_OMM_VERS":"2.0","COMMENT":"GENERATED VIA SPACE-TRACK.ORG API","CREATION_DATE":"2022-07-22T03:20:35","ORIGINATOR":"18 SPCS","OBJECT_NAME":"STARLINK-1098","OBJECT_ID":"2020-001D","CENTER_NAME":"EARTH","REF_FRAME":"TEME","TIME_SYSTEM":"UTC","MEAN_ELEMENT_THEORY":"SGP4","EPOCH":"2022-07-21T20:20:58.567776","MEAN_MOTION":"15.06387557","ECCENTRICITY":"0.00014430","INCLINATION":"53.0535","RA_OF_ASC_NODE":"183.0388","ARG_OF_PERICENTER":"68.9829","MEAN_ANOMALY":"291.1314","EPHEMERIS_TYPE":"0","CLASSIFICATION_TYPE":"U","NORAD_CAT_ID":"44917","ELEMENT_SET_NO":"999","REV_AT_EPOCH":"13986","BSTAR":"-0.00004407300000","MEAN_MOTION_DOT":"-0.00000938","MEAN_MOTION_DDOT":"0.0000000000000","SEMIMAJOR_AXIS":"6925.387","PERIOD":"95.593","APOAPSIS":"548.251","PERIAPSIS":"546.252","OBJECT_TYPE":"PAYLOAD","RCS_SIZE":"LARGE","COUNTRY_CODE":"US","LAUNCH_DATE":"2020-01-07","SITE":"AFETR","DECAY_DATE":null,"FILE":"3519265","GP_ID":"208601299","TLE_LINE0":"0 STARLINK-1098","TLE_LINE1":"1 44917U 20001D   22202.84790009 -.00000938  00000-0 -44073-4 0  9997","TLE_LINE2":"2 44917  53.0535 183.0388 0001443  68.9829 291.1314 15.06387557139868"}]